[{"OBJECT_NAME":"STARLINK-34547","OBJECT_ID":"2025-147Y","EPOCH":"2026-03-09T18:23:47.692608","MEAN_MOTION":15.30198061,"ECCENTRICITY":8.209e-5,"INCLINATION":53.1577,"RA_OF_ASC_NODE":242.381,"ARG_OF_PERICENTER":76.7554,"MEAN_ANOMALY":283.3538,"EPHEMERIS_TYPE":0,"CLASSIFICATION_TYPE":"U","NORAD_CAT_ID":64777,"ELEMENT_SET_NO":999,"REV_AT_EPOCH":3870,"BSTAR":0.0010792598,"MEAN_MOTION_DOT":0.0003174,"MEAN_MOTION_DDOT":0},{"OBJECT_NAME":"CZ-2C R\/B","OBJECT_ID":"2024-218A","EPOCH":"2026-03-09T22:16:31.791072","MEAN_MOTION":15.22960743,"ECCENTRICITY":0.00453409,"INCLINATION":97.5416,"RA_OF_ASC_NODE":83.973,"ARG_OF_PERICENTER":359.5317,"MEAN_ANOMALY":0.5869,"EPHEMERIS_TYPE":0,"CLASSIFICATION_TYPE":"U","NORAD_CAT_ID":62078,"ELEMENT_SET_NO":999,"REV_AT_EPOCH":7134,"BSTAR":0.00039378379,"MEAN_MOTION_DOT":9.445e-5,"MEAN_MOTION_DDOT":0}]
